NORAD_CAT_ID,OBJECT_NAME,OBJECT_TYPE,EPOCH,MEAN_MOTION,ECCENTRICITY,INCLINATION,RA_OF_ASC_NODE,ARG_OF_PERICENTER,MEAN_ANOMALY,BSTAR,MEAN_MOTION_DOT,MEAN_MOTION_DDOT,TLE_LINE0,TLE_LINE1,TLE_LINE2,SEMIMAJOR_AXIS,PERIOD,APOGEE,PERIGEE,DECAYED
53535.0,STARLINK-4138,PAYLOAD,2024-02-03 22:05:01,15.08839425,0.0001652,53.2173,267.3065,117.2186,242.8975,-8.5337e-06,-4.24e-06,0.0,0 STARLINK-4138,1 53535U 22101J   24034.92016158 -.00000424  00000-0 -85337-5 0  9995,2 53535  53.2173 267.3065 0001652 117.2186 242.8975 15.08839425 80711,6917.882,95.438,540.89,538.604,0.0
53535.0,STARLINK-4138,PAYLOAD,2024-02-04 01:15:48,15.08839458,0.0001601,53.2171,266.7114,115.2294,244.8864,-9.6032e-06,-4.41e-06,0.0,0 STARLINK-4138,1 53535U 22101J   24035.05264164 -.00000441  00000-0 -96032-5 0  9995,2 53535  53.2171 266.7114 0001601 115.2294 244.8864 15.08839458 80736,6917.882,95.438,540.855,538.639,0.0
53535.0,STARLINK-4138,PAYLOAD,2024-02-04 20:20:25,15.08840727,0.0001656,53.2169,263.1433,123.3123,236.8028,4.96e-05,5.01e-06,0.0,0 STARLINK-4138,1 53535U 22101J   24035.84751791  .00000501  00000-0  49600-4 0  9992,2 53535  53.2169 263.1433 0001656 123.3123 236.8028 15.08840727 80856,6917.878,95.438,540.889,538.598,0.0
53535.0,STARLINK-4138,PAYLOAD,2024-02-05 07:28:07,15.08849331,0.0001235,53.2164,261.0602,82.2564,277.8568,-4.7671e-05,-1.047e-05,0.0,0 STARLINK-4138,1 53535U 22101J   24036.31119608 -.00001047  00000-0 -47671-4 0  9994,2 53535  53.2164 261.0602 0001235  82.2564 277.8568 15.08849331 80923,6917.852,95.437,540.571,538.863,0.0
53535.0,STARLINK-4138,PAYLOAD,2024-02-05 20:11:13,15.08831282,0.0001374,53.2173,258.6822,102.9413,257.1732,-7.3023e-06,-4.04e-06,0.0,0 STARLINK-4138,1 53535U 22101J   24036.84112808 -.00000404  00000-0 -73023-5 0  9994,2 53535  53.2173 258.6822 0001374 102.9413 257.1732 15.08831282 81006,6917.907,95.438,540.723,538.822,0.0
53535.0,STARLINK-4138,PAYLOAD,2024-02-05 21:46:36,15.08831162,0.0001348,53.2173,258.3849,100.8609,259.2535,-9.5866e-06,-4.4e-06,0.0,0 STARLINK-4138,1 53535U 22101J   24036.90736854 -.00000440  00000-0 -95866-5 0  9993,2 53535  53.2173 258.3849 0001348 100.8609 259.2535 15.08831162 81019,6917.907,95.438,540.705,538.84,0.0
53535.0,STARLINK-4138,PAYLOAD,2024-02-06 20:02:00,15.08838375,0.0001344,53.2175,254.2217,97.9808,262.1337,-2.7713e-06,-3.32e-06,0.0,0 STARLINK-4138,1 53535U 22101J   24037.83472697 -.00000332  00000-0 -27713-5 0  9994,2 53535  53.2175 254.2217 0001344  97.9808 262.1337 15.08838375 81159,6917.885,95.438,540.68,538.821,0.0
53535.0,STARLINK-4138,PAYLOAD,2024-02-06 21:37:23,15.08839804,0.0001169,53.2166,253.9275,105.8852,254.2269,1.274e-05,-8.5e-07,0.0,0 STARLINK-4138,1 53535U 22101J   24037.90096553 -.00000085  00000-0  12740-4 0  9992,2 53535  53.2166 253.9275 0001169 105.8852 254.2269 15.08839804 81167,6917.881,95.438,540.555,538.937,0.0
53535.0,STARLINK-4138,PAYLOAD,2024-02-07 00:48:09,15.08840929,0.0001338,53.2172,253.3292,98.9175,261.1968,2.1585e-05,5.6e-07,0.0,0 STARLINK-4138,1 53535U 22101J   24038.03344483  .00000056  00000-0  21585-4 0  9999,2 53535  53.2172 253.3292 0001338  98.9175 261.1968 15.08840929 81180,6917.878,95.437,540.668,538.817,0.0
53535.0,STARLINK-4138,PAYLOAD,2024-02-07 21:28:10,15.08838477,0.0001207,53.2162,249.4616,86.5771,273.5359,9.2354e-05,1.182e-05,0.0,0 STARLINK-4138,1 53535U 22101J   24038.89456617  .00001182  00000-0  92354-4 0  9999,2 53535  53.2162 249.4616 0001207  86.5771 273.5359 15.08838477 81316,6917.885,95.438,540.585,538.915,0.0
53535.0,STARLINK-4138,PAYLOAD,2024-02-07 23:03:33,15.08840196,0.000123,53.2164,249.1642,92.8735,267.2398,0.00010683,1.413e-05,0.0,0 STARLINK-4138,1 53535U 22101J   24038.96080455  .00001413  00000-0  10683-3 0  9991,2 53535  53.2164 249.1642 0001230  92.8735 267.2398 15.08840196 81325,6917.88,95.438,540.596,538.894,0.0
53535.0,STARLINK-4138,PAYLOAD,2024-02-08 07:00:29,15.08838341,0.0001328,53.217,247.6776,83.5494,276.5649,8.2564e-05,1.026e-05,0.0,0 STARLINK-4138,1 53535U 22101J   24039.29200802  .00001026  00000-0  82564-4 0  9996,2 53535  53.2170 247.6776 0001328  83.5494 276.5649 15.08838341 81376,6917.885,95.438,540.669,538.832,0.0
53535.0,STARLINK-4138,PAYLOAD,2024-02-08 19:43:34,15.08836684,0.0001389,53.2173,245.2988,83.8447,276.2703,2.1035e-05,4.7e-07,0.0,0 STARLINK-4138,1 53535U 22101J   24039.82193238  .00000047  00000-0  21035-4 0  9997,2 53535  53.2173 245.2988 0001389  83.8447 276.2703 15.08836684 81451,6917.891,95.438,540.716,538.795,0.0
53535.0,STARLINK-4138,PAYLOAD,2024-02-08 21:18:58,15.08837006,0.0001335,53.2169,245.0016,83.7016,276.4128,1.9434e-05,2.1e-07,0.0,0 STARLINK-4138,1 53535U 22101J   24039.88817210  .00000021  00000-0  19434-4 0  9998,2 53535  53.2169 245.0016 0001335  83.7016 276.4128 15.08837006 81461,6917.89,95.438,540.678,538.831,0.0
53535.0,STARLINK-4138,PAYLOAD,2024-02-09 13:12:49,15.08831908,0.0001259,53.2158,242.0316,86.3321,273.7815,2.5804e-06,-2.47e-06,0.0,0 STARLINK-4138,1 53535U 22101J   24040.55057792 -.00000247  00000-0  25804-5 0  9995,2 53535  53.2158 242.0316 0001259  86.3321 273.7815 15.08831908 81561,6917.905,95.438,540.641,538.899,0.0
53535.0,STARLINK-4138,PAYLOAD,2024-02-09 19:34:22,15.08835923,0.0001288,53.2161,240.8421,82.865,277.2488,-4.4346e-05,-9.93e-06,0.0,0 STARLINK-4138,1 53535U 22101J   24040.81553853 -.00000993  00000-0 -44346-4 0  9993,2 53535  53.2161 240.8421 0001288  82.8650 277.2488 15.08835923 81607,6917.893,95.438,540.649,538.867,0.0
53535.0,STARLINK-4138,PAYLOAD,2024-02-10 19:25:08,15.08852117,0.0001619,53.2166,236.3834,52.6986,307.4153,0.00020594,2.992e-05,0.0,0 STARLINK-4138,1 53535U 22101J   24041.80912384  .00002992  00000-0  20594-3 0  9998,2 53535  53.2166 236.3834 0001619  52.6986 307.4153 15.08852117 81750,6917.843,95.437,540.828,538.588,0.0
53535.0,STARLINK-4138,PAYLOAD,2024-02-10 22:35:54,15.08850429,0.0001211,53.2172,235.7844,78.3118,281.801,0.00012725,1.738e-05,0.0,0 STARLINK-4138,1 53535U 22101J   24041.94160407  .00001738  00000-0  12725-3 0  9998,2 53535  53.2172 235.7844 0001211  78.3118 281.8010 15.08850429 81774,6917.849,95.437,540.551,538.876,0.0
53535.0,STARLINK-4138,PAYLOAD,2024-02-11 19:15:55,15.08850364,0.0001288,53.2171,231.9166,100.2223,259.8914,9.228e-05,1.181e-05,0.0,0 STARLINK-4138,1 53535U 22101J   24042.80272192  .00001181  00000-0  92280-4 0  9996,2 53535  53.2171 231.9166 0001288 100.2223 259.8914 15.08850364 81905,6917.849,95.437,540.605,538.823,0.0
53535.0,STARLINK-4138,PAYLOAD,2024-02-12 12:45:10,15.08852356,0.000123,53.2174,228.6428,76.819,283.2939,-0.00010268,-1.922e-05,0.0,0 STARLINK-4138,1 53535U 22101J   24043.53136707 -.00001922  00000-0 -10268-3 0  9998,2 53535  53.2174 228.6428 0001230  76.8190 283.2939 15.08852356 82014,6917.843,95.437,540.559,538.857,0.0
53535.0,STARLINK-4138,PAYLOAD,2024-02-12 19:06:42,15.08854336,0.0001265,53.2168,227.454,70.0341,290.0788,-7.2594e-05,-1.444e-05,0.0,0 STARLINK-4138,1 53535U 22101J   24043.79632273 -.00001444  00000-0 -72594-4 0  9995,2 53535  53.2168 227.4540 0001265  70.0341 290.0788 15.08854336 82053,6917.837,95.437,540.577,538.826,0.0
53535.0,STARLINK-4138,PAYLOAD,2024-02-13 12:35:57,15.088322,0.000143,53.2167,224.1833,100.6009,259.5144,3.6237e-05,2.89e-06,0.0,0 STARLINK-4138,1 53535U 22101J   24044.52497024  .00000289  00000-0  36237-4 0  9998,2 53535  53.2167 224.1833 0001430 100.6009 259.5144 15.08832200 82160,6917.904,95.438,540.758,538.78,0.0
53535.0,STARLINK-4138,PAYLOAD,2024-02-13 18:57:29,15.08843655,0.0001399,53.2171,223.0013,107.4543,252.6603,-4.3252e-05,-9.76e-06,0.0,0 STARLINK-4138,1 53535U 22101J   24044.78992718 -.00000976  00000-0 -43252-4 0  9996,2 53535  53.2171 223.0013 0001399 107.4543 252.6603 15.08843655 82200,6917.869,95.437,540.702,538.766,0.0
53535.0,STARLINK-4138,PAYLOAD,2024-02-14 12:26:45,15.08828404,0.0001573,53.2185,219.7323,105.6009,254.5157,-4.7388e-05,-1.042e-05,0.0,0 STARLINK-4138,1 53535U 22101J   24045.51857956 -.00001042  00000-0 -47388-4 0  9991,2 53535  53.2185 219.7323 0001573 105.6009 254.5157 15.08828404 82314,6917.916,95.438,540.869,538.693,0.0
53535.0,STARLINK-4138,PAYLOAD,2024-02-14 17:12:54,15.08826829,0.0001506,53.2185,218.84,103.3591,256.7569,-5.7657e-05,-1.205e-05,0.0,0 STARLINK-4138,1 53535U 22101J   24045.71730272 -.00001205  00000-0 -57657-4 0  9995,2 53535  53.2185 218.8400 0001506 103.3591 256.7569 15.08826829 82340,6917.921,95.438,540.827,538.744,0.0
53535.0,STARLINK-4138,PAYLOAD,2024-02-15 04:20:36,15.08828434,0.0001452,53.2179,216.7572,94.9385,265.1773,1.8025e-05,-1e-08,0.0,0 STARLINK-4138,1 53535U 22101J   24046.18098291 -.00000001  00000-0  18025-4 0  9993,2 53535  53.2179 216.7572 0001452  94.9385 265.1773 15.08828434 82419,6917.916,95.438,540.785,538.776,0.0
53535.0,STARLINK-4138,PAYLOAD,2024-02-15 18:39:04,15.08837905,0.0001421,53.2184,214.0807,97.1709,262.9445,7.4905e-05,9.04e-06,0.0,0 STARLINK-4138,1 53535U 22101J   24046.77713837  .00000904  00000-0  74905-4 0  9998,2 53535  53.2184 214.0807 0001421  97.1709 262.9445 15.08837905 82502,6917.887,95.438,540.735,538.769,0.0
53535.0,STARLINK-4138,PAYLOAD,2024-02-15 20:14:27,15.08837715,0.0001407,53.2184,213.783,92.4271,267.6883,7.8851e-05,9.67e-06,0.0,0 STARLINK-4138,1 53535U 22101J   24046.84337864  .00000967  00000-0  78851-4 0  9991,2 53535  53.2184 213.7830 0001407  92.4271 267.6883 15.08837715 82518,6917.887,95.438,540.726,538.779,0.0
53535.0,STARLINK-4138,PAYLOAD,2024-02-16 04:11:23,15.08843526,0.0001323,53.2174,212.2945,86.7953,273.3191,7.8387e-05,9.6e-06,0.0,0 STARLINK-4138,1 53535U 22101J   24047.17457501  .00000960  00000-0  78387-4 0  9996,2 53535  53.2174 212.2945 0001323  86.7953 273.3191 15.08843526 82566,6917.87,95.437,540.65,538.819,0.0
53535.0,STARLINK-4138,PAYLOAD,2024-02-16 18:29:51,15.088465,0.0001324,53.2169,209.6176,83.929,276.1853,0.00020686,3.006e-05,0.0,0 STARLINK-4138,1 53535U 22101J   24047.77073062  .00003006  00000-0  20686-3 0  9990,2 53535  53.2169 209.6176 0001324  83.9290 276.1853 15.08846500 82651,6917.861,95.437,540.641,538.81,0.0
